{
  "type": "FeatureCollection",
  "features": [
    {
      "type": "Feature",
      "properties": {
        "norad_id": 30874,
        "name": "FENGYUN 1C DEB",
        "group": "fengyun-1c-debris",
        "lat": -47.51210686446561,
        "lon": -162.9211019388814,
        "alt_km": 857.7845016133269,
        "timestamp": "2025-12-22T05:49:03.778793+00:00",
        "meta_object_name": "FENGYUN 1C DEB",
        "meta_object_id": "1999-025AXL",
        "meta_epoch": "2025-12-21T08:31:19.535808",
        "meta_mean_motion": 14.19665152,
        "meta_eccentricity": 0.0041581,
        "meta_inclination": 98.4901,
        "meta_ra_of_asc_node": 25.6136,
        "meta_arg_of_pericenter": 15.7625,
        "meta_mean_anomaly": 0.3081,
        "meta_ephemeris_type": 0,
        "meta_classification_type": "U",
        "meta_norad_cat_id": 30874,
        "meta_element_set_no": 999,
        "meta_rev_at_epoch": 97143,
        "meta_bstar": 0.000370373,
        "meta_mean_motion_dot": 7.48e-06,
        "meta_mean_motion_ddot": 0,
        "tle_line1": "1 30874U 99025AXL 25355.35508722  .00000748  00000+0  37037-3 0  9990",
        "tle_line2": "2 30874  98.4901  25.6136 0041581  15.7625   0.3081 14.19665152971439"
      },
      "geometry": {
        "type": "Point",
        "coordinates": [
          -162.9211019388814,
          -47.51210686446561
        ]
      }
    },
    {
      "type": "Feature",
      "properties": {
        "norad_id": 30876,
        "name": "FENGYUN 1C DEB",
        "group": "fengyun-1c-debris",
        "lat": -46.13578281410478,
        "lon": -9.752918718436076,
        "alt_km": 880.6782083063981,
        "timestamp": "2025-12-22T05:49:03.778804+00:00",
        "meta_object_name": "FENGYUN 1C DEB",
        "meta_object_id": "1999-025AXN",
        "meta_epoch": "2025-12-21T17:10:08.673024",
        "meta_mean_motion": 13.99180154,
        "meta_eccentricity": 0.0066279,
        "meta_inclination": 98.8119,
        "meta_ra_of_asc_node": 340.4524,
        "meta_arg_of_pericenter": 252.3874,
        "meta_mean_anomaly": 286.9765,
        "meta_ephemeris_type": 0,
        "meta_classification_type": "U",
        "meta_norad_cat_id": 30876,
        "meta_element_set_no": 999,
        "meta_rev_at_epoch": 95835,
        "meta_bstar": 0.00047133,
        "meta_mean_motion_dot": 6.54e-06,
        "meta_mean_motion_ddot": 0,
        "tle_line1": "1 30876U 99025AXN 25355.71537816  .00000654  00000+0  47133-3 0  9992",
        "tle_line2": "2 30876  98.8119 340.4524 0066279 252.3874 286.9765 13.99180154958359"
      },
      "geometry": {
        "type": "Point",
        "coordinates": [
          -9.752918718436076,
          -46.13578281410478
        ]
      }
    },
    {
      "type": "Feature",
      "properties": {
        "norad_id": 30878,
        "name": "FENGYUN 1C DEB",
        "group": "fengyun-1c-debris",
        "lat": 35.89776578076677,
        "lon": -176.16625065546202,
        "alt_km": 866.1799446920786,
        "timestamp": "2025-12-22T05:49:03.778814+00:00",
        "meta_object_name": "FENGYUN 1C DEB",
        "meta_object_id": "1999-025AXQ",
        "meta_epoch": "2025-12-20T19:42:36.070848",
        "meta_mean_motion": 14.11901976,
        "meta_eccentricity": 0.00398876,
        "meta_inclination": 98.7204,
        "meta_ra_of_asc_node": 356.0737,
        "meta_arg_of_pericenter": 271.0719,
        "meta_mean_anomaly": 213.36,
        "meta_ephemeris_type": 0,
        "meta_classification_type": "U",
        "meta_norad_cat_id": 30878,
        "meta_element_set_no": 999,
        "meta_rev_at_epoch": 96481,
        "meta_bstar": 0.0004377556,
        "meta_mean_motion_dot": 7.63e-06,
        "meta_mean_motion_ddot": 0,
        "tle_line1": "1 30878U 99025AXQ 25354.82125082  .00000763  00000+0  43776-3 0  9993",
        "tle_line2": "2 30878  98.7204 356.0737 0039887 271.0719 213.3600 14.11901976964813"
      },
      "geometry": {
        "type": "Point",
        "coordinates": [
          -176.16625065546202,
          35.89776578076677
        ]
      }
    },
    {
      "type": "Feature",
      "properties": {
        "norad_id": 30879,
        "name": "FENGYUN 1C DEB",
        "group": "fengyun-1c-debris",
        "lat": -49.21719745711504,
        "lon": 23.23362090167422,
        "alt_km": 542.3216156139606,
        "timestamp": "2025-12-22T05:49:03.778824+00:00",
        "meta_object_name": "FENGYUN 1C DEB",
        "meta_object_id": "1999-025AXR",
        "meta_epoch": "2025-12-21T10:45:45.535680",
        "meta_mean_motion": 14.6778628,
        "meta_eccentricity": 0.0200965,
        "meta_inclination": 99.3524,
        "meta_ra_of_asc_node": 213.3409,
        "meta_arg_of_pericenter": 253.4575,
        "meta_mean_anomaly": 104.4466,
        "meta_ephemeris_type": 0,
        "meta_classification_type": "U",
        "meta_norad_cat_id": 30879,
        "meta_element_set_no": 999,
        "meta_rev_at_epoch": 62067,
        "meta_bstar": 0.0031807583,
        "meta_mean_motion_dot": 0.00024646,
        "meta_mean_motion_ddot": 0,
        "tle_line1": "1 30879U 99025AXR 25355.44844370  .00024646  00000+0  31808-2 0  9999",
        "tle_line2": "2 30879  99.3524 213.3409 0200965 253.4575 104.4466 14.67786280620671"
      },
      "geometry": {
        "type": "Point",
        "coordinates": [
          23.23362090167422,
          -49.21719745711504
        ]
      }
    },
    {
      "type": "Feature",
      "properties": {
        "norad_id": 30880,
        "name": "FENGYUN 1C DEB",
        "group": "fengyun-1c-debris",
        "lat": 44.615442421030245,
        "lon": 59.32656257019077,
        "alt_km": 789.7016748570722,
        "timestamp": "2025-12-22T05:49:03.778834+00:00",
        "meta_object_name": "FENGYUN 1C DEB",
        "meta_object_id": "1999-025AXS",
        "meta_epoch": "2025-12-21T11:04:41.247264",
        "meta_mean_motion": 14.25647327,
        "meta_eccentricity": 0.00217068,
        "meta_inclination": 98.7943,
        "meta_ra_of_asc_node": 67.3294,
        "meta_arg_of_pericenter": 82.8196,
        "meta_mean_anomaly": 277.545,
        "meta_ephemeris_type": 0,
        "meta_classification_type": "U",
        "meta_norad_cat_id": 30880,
        "meta_element_set_no": 999,
        "meta_rev_at_epoch": 96838,
        "meta_bstar": 0.0010182862,
        "meta_mean_motion_dot": 2.375e-05,
        "meta_mean_motion_ddot": 0,
        "tle_line1": "1 30880U 99025AXS 25355.46158851  .00002375  00000+0  10183-2 0  9993",
        "tle_line2": "2 30880  98.7943  67.3294 0021706  82.8196 277.5450 14.25647327968387"
      },
      "geometry": {
        "type": "Point",
        "coordinates": [
          59.32656257019077,
          44.615442421030245
        ]
      }
    },
    {
      "type": "Feature",
      "properties": {
        "norad_id": 30882,
        "name": "FENGYUN 1C DEB",
        "group": "fengyun-1c-debris",
        "lat": -5.2955188249400225,
        "lon": -129.1655573539824,
        "alt_km": 717.5563715899789,
        "timestamp": "2025-12-22T05:49:03.778845+00:00",
        "meta_object_name": "FENGYUN 1C DEB",
        "meta_object_id": "1999-025AXU",
        "meta_epoch": "2025-12-21T09:36:28.677888",
        "meta_mean_motion": 14.86852911,
        "meta_eccentricity": 0.01523754,
        "meta_inclination": 97.9409,
        "meta_ra_of_asc_node": 50.7338,
        "meta_arg_of_pericenter": 12.4613,
        "meta_mean_anomaly": 348.0304,
        "meta_ephemeris_type": 0,
        "meta_classification_type": "U",
        "meta_norad_cat_id": 30882,
        "meta_element_set_no": 999,
        "meta_rev_at_epoch": 99783,
        "meta_bstar": 0.00062068425,
        "meta_mean_motion_dot": 6.79e-05,
        "meta_mean_motion_ddot": 0,
        "tle_line1": "1 30882U 99025AXU 25355.40033192  .00006790  00000+0  62068-3 0  9994",
        "tle_line2": "2 30882  97.9409  50.7338 0152375  12.4613 348.0304 14.86852911997830"
      },
      "geometry": {
        "type": "Point",
        "coordinates": [
          -129.1655573539824,
          -5.2955188249400225
        ]
      }
    },
    {
      "type": "Feature",
      "properties": {
        "norad_id": 30883,
        "name": "FENGYUN 1C DEB",
        "group": "fengyun-1c-debris",
        "lat": -75.24720386572723,
        "lon": 178.77988811247045,
        "alt_km": 824.3392471142051,
        "timestamp": "2025-12-22T05:49:03.778855+00:00",
        "meta_object_name": "FENGYUN 1C DEB",
        "meta_object_id": "1999-025AXV",
        "meta_epoch": "2025-12-20T21:11:40.883712",
        "meta_mean_motion": 14.14555368,
        "meta_eccentricity": 0.0112282,
        "meta_inclination": 98.3608,
        "meta_ra_of_asc_node": 31.4565,
        "meta_arg_of_pericenter": 190.377,
        "meta_mean_anomaly": 348.042,
        "meta_ephemeris_type": 0,
        "meta_classification_type": "U",
        "meta_norad_cat_id": 30883,
        "meta_element_set_no": 999,
        "meta_rev_at_epoch": 97032,
        "meta_bstar": 0.00014564,
        "meta_mean_motion_dot": 2.57e-06,
        "meta_mean_motion_ddot": 0,
        "tle_line1": "1 30883U 99025AXV 25354.88311208  .00000257  00000+0  14564-3 0  9993",
        "tle_line2": "2 30883  98.3608  31.4565 0112282 190.3770 348.0420 14.14555368970329"
      },
      "geometry": {
        "type": "Point",
        "coordinates": [
          178.77988811247045,
          -75.24720386572723
        ]
      }
    }
  ]
}